{"type": "FeatureCollection", "features": [ {"type": "Feature", "properties": {"norad_id": 31326, "name": "FENGYUN 1C DEB", "group": "fengyun-1c-debris", "lat": -6.701638983877257, "lon": -113.15076464483872, "alt_km": 555.5287011081537, "timestamp": "2025-12-27T15:27:11.472505+00:00", "meta": {"OBJECT_NAME": "FENGYUN 1C DEB", "OBJECT_ID": "1999-025BQE", "EPOCH": "2025-12-25T15:31:10.913376", "MEAN_MOTION": 15.01858626, "ECCENTRICITY": 0.0013789, "INCLINATION": 98.961, "RA_OF_ASC_NODE": 243.4824, "ARG_OF_PERICENTER": 330.7691, "MEAN_ANOMALY": 29.2756, "EPHEMERIS_TYPE": 0, "CLASSIFICATION_TYPE": "U", "NORAD_CAT_ID": 31326, "ELEMENT_SET_NO": 999, "REV_AT_EPOCH": 73939, "BSTAR": 0.0070355, "MEAN_MOTION_DOT": 0.00093137, "MEAN_MOTION_DDOT": 0}, "tle": {"line1": "1 31326U 99025BQE 25359.64665409  .00093137  00000+0  70355-2 0  9998", "line2": "2 31326  98.9610 243.4824 0013789 330.7691  29.2756 15.01858626739398"}}, "geometry": {"type": "Point", "coordinates": [-113.15076464483872, -6.701638983877257]}}, {"type": "Feature", "properties": {"norad_id": 31327, "name": "FENGYUN 1C DEB", "group": "fengyun-1c-debris", "lat": -5.7716771979308215, "lon": 6.528590317018622, "alt_km": 486.24568299375096, "timestamp": "2025-12-27T15:27:11.472515+00:00", "meta": {"OBJECT_NAME": "FENGYUN 1C DEB", "OBJECT_ID": "1999-025BQF", "EPOCH": "2025-12-26T06:07:03.029088", "MEAN_MOTION": 15.11611224, "ECCENTRICITY": 0.0084184, "INCLINATION": 98.9827, "RA_OF_ASC_NODE": 3.9817, "ARG_OF_PERICENTER": 325.2884, "MEAN_ANOMALY": 34.2865, "EPHEMERIS_TYPE": 0, "CLASSIFICATION_TYPE": "U", "NORAD_CAT_ID": 31327, "ELEMENT_SET_NO": 999, "REV_AT_EPOCH": 303, "BSTAR": 0.0013919, "MEAN_MOTION_DOT": 0.0002574, "MEAN_MOTION_DDOT": 0}, "tle": {"line1": "1 31327U 99025BQF 25360.25489617  .00025740  00000+0  13919-2 0  9991", "line2": "2 31327  98.9827   3.9817 0084184 325.2884  34.2865 15.11611224  3034"}}, "geometry": {"type": "Point", "coordinates": [6.528590317018622, -5.7716771979308215]}}, {"type": "Feature", "properties": {"norad_id": 31328, "name": "FENGYUN 1C DEB", "group": "fengyun-1c-debris", "lat": 64.41665108773009, "lon": -43.157423737044034, "alt_km": 809.6269688978027, "timestamp": "2025-12-27T15:27:11.472526+00:00", "meta": {"OBJECT_NAME": "FENGYUN 1C DEB", "OBJECT_ID": "1999-025BQG", "EPOCH": "2025-12-27T05:03:31.140576", "MEAN_MOTION": 14.2895048, "ECCENTRICITY": 0.01044142, "INCLINATION": 98.4852, "RA_OF_ASC_NODE": 334.5894, "ARG_OF_PERICENTER": 173.7037, "MEAN_ANOMALY": 186.5485, "EPHEMERIS_TYPE": 0, "CLASSIFICATION_TYPE": "U", "NORAD_CAT_ID": 31328, "ELEMENT_SET_NO": 999, "REV_AT_EPOCH": 97669, "BSTAR": 8.0990275e-05, "MEAN_MOTION_DOT": 1.75e-06, "MEAN_MOTION_DDOT": 0}, "tle": {"line1": "1 31328U 99025BQG 25361.21077709  .00000175  00000+0  80990-4 0  9994", "line2": "2 31328  98.4852 334.5894 0104414 173.7037 186.5485 14.28950480976698"}}, "geometry": {"type": "Point", "coordinates": [-43.157423737044034, 64.41665108773009]}}, {"type": "Feature", "properties": {"norad_id": 31330, "name": "FENGYUN 1C DEB", "group": "fengyun-1c-debris", "lat": 9.652287361178688, "lon": 166.99886769264262, "alt_km": 519.5125567982122, "timestamp": "2025-12-27T15:27:11.472537+00:00", "meta": {"OBJECT_NAME": "FENGYUN 1C DEB", "OBJECT_ID": "1999-025BQJ", "EPOCH": "2025-12-26T22:40:50.885760", "MEAN_MOTION": 15.15369374, "ECCENTRICITY": 0.0001631, "INCLINATION": 98.883, "RA_OF_ASC_NODE": 167.7069, "ARG_OF_PERICENTER": 347.4148, "MEAN_ANOMALY": 171.9329, "EPHEMERIS_TYPE": 0, "CLASSIFICATION_TYPE": "U", "NORAD_CAT_ID": 31330, "ELEMENT_SET_NO": 999, "REV_AT_EPOCH": 97344, "BSTAR": 0.01235, "MEAN_MOTION_DOT": 0.00240704, "MEAN_MOTION_DDOT": 0}, "tle": {"line1": "1 31330U 99025BQJ 25360.94503340  .00240704  00000+0  12350-1 0  9997", "line2": "2 31330  98.8830 167.7069 0001631 347.4148 171.9329 15.15369374973449"}}, "geometry": {"type": "Point", "coordinates": [166.99886769264262, 9.652287361178688]}}, {"type": "Feature", "properties": {"norad_id": 31331, "name": "FENGYUN 1C DEB", "group": "fengyun-1c-debris", "lat": -30.221221755087438, "lon": 32.26097340595786, "alt_km": 935.9083269393586, "timestamp": "2025-12-27T15:27:11.472552+00:00", "meta": {"OBJECT_NAME": "FENGYUN 1C DEB", "OBJECT_ID": "1999-025BQK", "EPOCH": "2025-12-19T07:00:29.877408", "MEAN_MOTION": 14.00628517, "ECCENTRICITY": 0.0053435, "INCLINATION": 98.8725, "RA_OF_ASC_NODE": 18.9328, "ARG_OF_PERICENTER": 164.3513, "MEAN_ANOMALY": 195.9319, "EPHEMERIS_TYPE": 0, "CLASSIFICATION_TYPE": "U", "NORAD_CAT_ID": 31331, "ELEMENT_SET_NO": 999, "REV_AT_EPOCH": 63948, "BSTAR": 0.00038925, "MEAN_MOTION_DOT": 5.44e-06, "MEAN_MOTION_DDOT": 0}, "tle": {"line1": "1 31331U 99025BQK 25353.29201247  .00000544  00000+0  38925-3 0  9993", "line2": "2 31331  98.8725  18.9328 0053435 164.3513 195.9319 14.00628517639487"}}, "geometry": {"type": "Point", "coordinates": [32.26097340595786, -30.221221755087438]}}, {"type": "Feature", "properties": {"norad_id": 31332, "name": "FENGYUN 1C DEB", "group": "fengyun-1c-debris", "lat": 29.627612356115492, "lon": 6.542338027293966, "alt_km": 827.0872746744581, "timestamp": "2025-12-27T15:27:11.472562+00:00", "meta": {"OBJECT_NAME": "FENGYUN 1C DEB", "OBJECT_ID": "1999-025BQL", "EPOCH": "2025-12-27T00:18:34.820928", "MEAN_MOTION": 14.11888976, "ECCENTRICITY": 0.00494138, "INCLINATION": 98.706, "RA_OF_ASC_NODE": 10.9291, "ARG_OF_PERICENTER": 344.4919, "MEAN_ANOMALY": 79.8445, "EPHEMERIS_TYPE": 0, "CLASSIFICATION_TYPE": "U", "NORAD_CAT_ID": 31332, "ELEMENT_SET_NO": 999, "REV_AT_EPOCH": 96173, "BSTAR": 0.00095143307, "MEAN_MOTION_DOT": 1.715e-05, "MEAN_MOTION_DDOT": 0}, "tle": {"line1": "1 31332U 99025BQL 25361.01290302  .00001715  00000+0  95143-3 0  9999", "line2": "2 31332  98.7060  10.9291 0049413 344.4919  79.8445 14.11888976961737"}}, "geometry": {"type": "Point", "coordinates": [6.542338027293966, 29.627612356115492]}}, {"type": "Feature", "properties": {"norad_id": 31333, "name": "FENGYUN 1C DEB", "group": "fengyun-1c-debris", "lat": -48.273933779371184, "lon": 25.235778873346387, "alt_km": 749.7365468196913, "timestamp": "2025-12-27T15:27:11.472573+00:00", "meta": {"OBJECT_NAME": "FENGYUN 1C DEB", "OBJECT_ID": "1999-025BQM", "EPOCH": "2025-12-20T18:42:54.770112", "MEAN_MOTION": 14.26566831, "ECCENTRICITY": 0.00982731, "INCLINATION": 98.4277, "RA_OF_ASC_NODE": 9.0567, "ARG_OF_PERICENTER": 2.9268, "MEAN_ANOMALY": 357.2467, "EPHEMERIS_TYPE": 0, "CLASSIFICATION_TYPE": "U", "NORAD_CAT_ID": 31333, "ELEMENT_SET_NO": 999, "REV_AT_EPOCH": 96706, "BSTAR": 0.00048897512, "MEAN_MOTION_DOT": 1.199e-05, "MEAN_MOTION_DDOT": 0}, "tle": {"line1": "1 31333U 99025BQM 25354.77980058  .00001199  00000+0  48898-3 0  9990", "line2": "2 31333  98.4277   9.0567 0098273   2.9268 357.2467 14.26566831967069"}}, "geometry": {"type": "Point", "coordinates": [25.235778873346387, -48.273933779371184]}}, {"type": "Feature", "properties": {"norad_id": 31336, "name": "FENGYUN 1C DEB", "group": "fengyun-1c-debris", "lat": -11.83623892551026, "lon": 58.45669502335526, "alt_km": 762.1520192823909, "timestamp": "2025-12-27T15:27:11.472583+00:00", "meta": {"OBJECT_NAME": "FENGYUN 1C DEB", "OBJECT_ID": "1999-025BQQ", "EPOCH": "2025-12-26T23:22:45.277824", "MEAN_MOTION": 14.38729333, "ECCENTRICITY": 0.0093872, "INCLINATION": 98.4631, "RA_OF_ASC_NODE": 56.0081, "ARG_OF_PERICENTER": 76.501, "MEAN_ANOMALY": 45.816, "EPHEMERIS_TYPE": 0, "CLASSIFICATION_TYPE": "U", "NORAD_CAT_ID": 31336, "ELEMENT_SET_NO": 999, "REV_AT_EPOCH": 97995, "BSTAR": 0.00033538, "MEAN_MOTION_DOT": 1.039e-05, "MEAN_MOTION_DDOT": 0}, "tle": {"line1": "1 31336U 99025BQQ 25360.97413516  .00001039  00000+0  33538-3 0  9990", "line2": "2 31336  98.4631  56.0081 0093872  76.5010  45.8160 14.38729333979953"}}, "geometry": {"type": "Point", "coordinates": [58.45669502335526, -11.83623892551026]}}, {"type": "Feature", "properties": {"norad_id": 31338, "name": "FENGYUN 1C DEB", "group": "fengyun-1c-debris", "lat": 43.832988404812404, "lon": -167.01747725619865, "alt_km": 770.2290067887998, "timestamp": "2025-12-27T15:27:11.472593+00:00", "meta": {"OBJECT_NAME": "FENGYUN 1C DEB", "OBJECT_ID": "1999-025BQS", "EPOCH": "2025-12-24T19:38:38.429376", "MEAN_MOTION": 14.20844571, "ECCENTRICITY": 0.00720648, "INCLINATION": 98.7165, "RA_OF_ASC_NODE": 198.6657, "ARG_OF_PERICENTER": 73.8557, "MEAN_ANOMALY": 287.0537, "EPHEMERIS_TYPE": 0, "CLASSIFICATION_TYPE": "U", "NORAD_CAT_ID": 31338, "ELEMENT_SET_NO": 999, "REV_AT_EPOCH": 63829, "BSTAR": 0.0023341859, "MEAN_MOTION_DOT": 5.139e-05, "MEAN_MOTION_DDOT": 0}, "tle": {"line1": "1 31338U 99025BQS 25358.81850034  .00005139  00000+0  23342-2 0  9998", "line2": "2 31338  98.7165 198.6657 0072064  73.8557 287.0537 14.20844571638298"}}, "geometry": {"type": "Point", "coordinates": [-167.01747725619865, 43.832988404812404]}}, {"type": "Feature", "properties": {"norad_id": 31339, "name": "FENGYUN 1C DEB", "group": "fengyun-1c-debris", "lat": -33.08924317977417, "lon": 23.625691880755863, "alt_km": 819.1061077692129, "timestamp": "2025-12-27T15:27:11.472603+00:00", "meta": {"OBJECT_NAME": "FENGYUN 1C DEB", "OBJECT_ID": "1999-025BQT", "EPOCH": "2025-12-27T07:06:30.522240", "MEAN_MOTION": 14.12219821, "ECCENTRICITY": 0.00742789, "INCLINATION": 98.7131, "RA_OF_ASC_NODE": 17.5527, "ARG_OF_PERICENTER": 283.455, "MEAN_ANOMALY": 75.8352, "EPHEMERIS_TYPE": 0, "CLASSIFICATION_TYPE": "U", "NORAD_CAT_ID": 31339, "ELEMENT_SET_NO": 999, "REV_AT_EPOCH": 95883, "BSTAR": 0.00096548273, "MEAN_MOTION_DOT": 1.778e-05, "MEAN_MOTION_DDOT": 0}, "tle": {"line1": "1 31339U 99025BQT 25361.29618660  .00001778  00000+0  96548-3 0  9996", "line2": "2 31339  98.7131  17.5527 0074278 283.4550  75.8352 14.12219821958836"}}, "geometry": {"type": "Point", "coordinates": [23.625691880755863, -33.08924317977417]}}]}